{
    "links": {
        "self": "http://www.neowsapp.com/rest/v1/neo/3655753?api_key=iIulBulltgU6a56xZRHN4H3l9WmuAYTsLGpBGhQ2"
    },
    "id": "3655753",
    "neo_reference_id": "3655753",
    "name": "(2014 AY16)",
    "designation": "2014 AY16",
    "nasa_jpl_url": "http://ssd.jpl.nasa.gov/sbdb.cgi?sstr=3655753",
    "absolute_magnitude_h": 23.5,
    "estimated_diameter": {
        "kilometers": {
            "estimated_diameter_min": 0.0530340723,
            "estimated_diameter_max": 0.1185877909
        },
        "meters": {
            "estimated_diameter_min": 53.0340723319,
            "estimated_diameter_max": 118.5877908577
        },
        "miles": {
            "estimated_diameter_min": 0.0329538346,
            "estimated_diameter_max": 0.0736870142
        },
        "feet": {
            "estimated_diameter_min": 173.9963058693,
            "estimated_diameter_max": 389.0675677576
        }
    },
    "is_potentially_hazardous_asteroid": false,
    "close_approach_data": [
        {
            "close_approach_date": "2013-12-19",
            "close_approach_date_full": "2013-Dec-19 05:02",
            "epoch_date_close_approach": 1387429320000,
            "relative_velocity": {
                "kilometers_per_second": "13.546842127",
                "kilometers_per_hour": "48768.6316570873",
                "miles_per_hour": "30302.9311538163"
            },
            "miss_distance": {
                "astronomical": "0.1490202728",
                "lunar": "57.9688861192",
                "kilometers": "22293115.397698936",
                "miles": "13852299.5684638768"
            },
            "orbiting_body": "Earth"
        }
    ],
    "orbital_data": {
        "orbit_id": "12",
        "orbit_determination_date": "2017-04-06 08:42:59",
        "first_observation_date": "2014-01-03",
        "last_observation_date": "2014-01-11",
        "data_arc_in_days": 8,
        "observations_used": 16,
        "orbit_uncertainty": "8",
        "minimum_orbit_intersection": ".0270435",
        "jupiter_tisserand_invariant": "3.127",
        "epoch_osculation": "2456666.5",
        "eccentricity": ".6173840297239893",
        "semi_major_axis": "2.570751615012581",
        "inclination": "4.327375755349511",
        "ascending_node_longitude": "263.1297214306484",
        "orbital_period": "1505.527188293763",
        "perihelion_distance": ".9836106235166602",
        "perihelion_argument": "144.7487144531712",
        "aphelion_distance": "4.157892606508502",
        "perihelion_time": "2456620.110641121706",
        "mean_anomaly": "11.0925723069222",
        "mean_motion": ".2391188965560917",
        "equinox": "J2000",
        "orbit_class": {
            "orbit_class_type": "APO",
            "orbit_class_description": "Near-Earth asteroid orbits which cross the Earth’s orbit similar to that of 1862 Apollo",
            "orbit_class_range": "a (semi-major axis) > 1.0 AU; q (perihelion) < 1.017 AU"
        }
    },
    "is_sentry_object": false
}